{"type": "FeatureCollection", "features": [ {"type": "Feature", "properties": {"norad_id": 40534, "name": "GPS BIIF-9  (PRN 26)", "group": "gps-ops", "lat": 19.158169523342636, "lon": 16.99515680139453, "alt_km": 20308.196630343464, "timestamp": "2025-12-08T19:31:49.069218+00:00", "meta": {"OBJECT_NAME": "GPS BIIF-9  (PRN 26)", "OBJECT_ID": "2015-013A", "EPOCH": "2025-12-07T14:28:59.851200", "MEAN_MOTION": 2.00562814, "ECCENTRICITY": 0.01068213, "INCLINATION": 53.1985, "RA_OF_ASC_NODE": 212.103, "ARG_OF_PERICENTER": 38.3543, "MEAN_ANOMALY": 322.4903, "EPHEMERIS_TYPE": 0, "CLASSIFICATION_TYPE": "U", "NORAD_CAT_ID": 40534, "ELEMENT_SET_NO": 999, "REV_AT_EPOCH": 7798, "BSTAR": 0, "MEAN_MOTION_DOT": 3.4e-07, "MEAN_MOTION_DDOT": 0}, "tle": {"line1": "1 40534U 15013A   25341.60347050  .00000034  00000+0  00000+0 0  9991", "line2": "2 40534  53.1985 212.1030 0106821  38.3543 322.4903  2.00562814 77984"}}, "geometry": {"type": "Point", "coordinates": [16.99515680139453, 19.158169523342636]}}, {"type": "Feature", "properties": {"norad_id": 40730, "name": "GPS BIIF-10 (PRN 08)", "group": "gps-ops", "lat": 30.105981062414983, "lon": -60.31388879002213, "alt_km": 19890.43847648993, "timestamp": "2025-12-08T19:31:49.069229+00:00", "meta": {"OBJECT_NAME": "GPS BIIF-10 (PRN 08)", "OBJECT_ID": "2015-033A", "EPOCH": "2025-12-07T18:21:19.521792", "MEAN_MOTION": 2.00565772, "ECCENTRICITY": 0.0110644, "INCLINATION": 54.1351, "RA_OF_ASC_NODE": 274.9776, "ARG_OF_PERICENTER": 26.6875, "MEAN_ANOMALY": 333.8934, "EPHEMERIS_TYPE": 0, "CLASSIFICATION_TYPE": "U", "NORAD_CAT_ID": 40730, "ELEMENT_SET_NO": 999, "REV_AT_EPOCH": 7615, "BSTAR": 0, "MEAN_MOTION_DOT": -3.6e-07, "MEAN_MOTION_DDOT": 0}, "tle": {"line1": "1 40730U 15033A   25341.76480928 -.00000036  00000+0  00000+0 0  9993", "line2": "2 40730  54.1351 274.9776 0110644  26.6875 333.8934  2.00565772 76153"}}, "geometry": {"type": "Point", "coordinates": [-60.31388879002213, 30.105981062414983]}}, {"type": "Feature", "properties": {"norad_id": 41019, "name": "GPS BIIF-11 (PRN 10)", "group": "gps-ops", "lat": -4.510917115059317, "lon": 35.216415007618885, "alt_km": 20348.77908276792, "timestamp": "2025-12-08T19:31:49.069239+00:00", "meta": {"OBJECT_NAME": "GPS BIIF-11 (PRN 10)", "OBJECT_ID": "2015-062A", "EPOCH": "2025-12-07T07:48:52.356672", "MEAN_MOTION": 2.00566963, "ECCENTRICITY": 0.01106642, "INCLINATION": 56.8282, "RA_OF_ASC_NODE": 38.2118, "ARG_OF_PERICENTER": 229.7833, "MEAN_ANOMALY": 129.2989, "EPHEMERIS_TYPE": 0, "CLASSIFICATION_TYPE": "U", "NORAD_CAT_ID": 41019, "ELEMENT_SET_NO": 999, "REV_AT_EPOCH": 7398, "BSTAR": 0, "MEAN_MOTION_DOT": -7.2e-07, "MEAN_MOTION_DDOT": 0}, "tle": {"line1": "1 41019U 15062A   25341.32560598 -.00000072  00000+0  00000+0 0  9990", "line2": "2 41019  56.8282  38.2118 0110664 229.7833 129.2989  2.00566963 73987"}}, "geometry": {"type": "Point", "coordinates": [35.216415007618885, -4.510917115059317]}}, {"type": "Feature", "properties": {"norad_id": 41328, "name": "GPS BIIF-12 (PRN 32)", "group": "gps-ops", "lat": -48.303021000723874, "lon": 46.30665596923439, "alt_km": 20034.83514740459, "timestamp": "2025-12-08T19:31:49.069268+00:00", "meta": {"OBJECT_NAME": "GPS BIIF-12 (PRN 32)", "OBJECT_ID": "2016-007A", "EPOCH": "2025-12-07T09:47:29.747616", "MEAN_MOTION": 2.00560863, "ECCENTRICITY": 0.0091895, "INCLINATION": 55.4032, "RA_OF_ASC_NODE": 97.0687, "ARG_OF_PERICENTER": 243.44, "MEAN_ANOMALY": 115.5952, "EPHEMERIS_TYPE": 0, "CLASSIFICATION_TYPE": "U", "NORAD_CAT_ID": 41328, "ELEMENT_SET_NO": 999, "REV_AT_EPOCH": 7199, "BSTAR": 0, "MEAN_MOTION_DOT": -4e-08, "MEAN_MOTION_DDOT": 0}, "tle": {"line1": "1 41328U 16007A   25341.40798319 -.00000004  00000+0  00000+0 0  9991", "line2": "2 41328  55.4032  97.0687 0091895 243.4400 115.5952  2.00560863 71999"}}, "geometry": {"type": "Point", "coordinates": [46.30665596923439, -48.303021000723874]}}, {"type": "Feature", "properties": {"norad_id": 43873, "name": "GPS BIII-1  (PRN 04)", "group": "gps-ops", "lat": -7.275664858434006, "lon": -75.28564036804845, "alt_km": 20085.974045445, "timestamp": "2025-12-08T19:31:49.069287+00:00", "meta": {"OBJECT_NAME": "GPS BIII-1  (PRN 04)", "OBJECT_ID": "2018-109A", "EPOCH": "2025-12-08T07:13:28.903008", "MEAN_MOTION": 2.00553333, "ECCENTRICITY": 0.00372059, "INCLINATION": 55.5652, "RA_OF_ASC_NODE": 99.7218, "ARG_OF_PERICENTER": 194.8087, "MEAN_ANOMALY": 343.7939, "EPHEMERIS_TYPE": 0, "CLASSIFICATION_TYPE": "U", "NORAD_CAT_ID": 43873, "ELEMENT_SET_NO": 999, "REV_AT_EPOCH": 5124, "BSTAR": 0, "MEAN_MOTION_DOT": 5e-08, "MEAN_MOTION_DDOT": 0}, "tle": {"line1": "1 43873U 18109A   25342.30102897  .00000005  00000+0  00000+0 0  9993", "line2": "2 43873  55.5652  99.7218 0037205 194.8087 343.7939  2.00553333 51249"}}, "geometry": {"type": "Point", "coordinates": [-75.28564036804845, -7.275664858434006]}}, {"type": "Feature", "properties": {"norad_id": 44506, "name": "GPS BIII-2  (PRN 18)", "group": "gps-ops", "lat": 55.390430389130145, "lon": 59.896572850769154, "alt_km": 20236.02296303737, "timestamp": "2025-12-08T19:31:49.069314+00:00", "meta": {"OBJECT_NAME": "GPS BIII-2  (PRN 18)", "OBJECT_ID": "2019-056A", "EPOCH": "2025-12-07T10:30:03.799008", "MEAN_MOTION": 2.00565766, "ECCENTRICITY": 0.00577762, "INCLINATION": 55.723, "RA_OF_ASC_NODE": 338.7627, "ARG_OF_PERICENTER": 198.4737, "MEAN_ANOMALY": 333.4267, "EPHEMERIS_TYPE": 0, "CLASSIFICATION_TYPE": "U", "NORAD_CAT_ID": 44506, "ELEMENT_SET_NO": 999, "REV_AT_EPOCH": 4622, "BSTAR": 0, "MEAN_MOTION_DOT": -8.3e-07, "MEAN_MOTION_DDOT": 0}, "tle": {"line1": "1 44506U 19056A   25341.43754397 -.00000083  00000+0  00000+0 0  9997", "line2": "2 44506  55.7230 338.7627 0057776 198.4737 333.4267  2.00565766 46229"}}, "geometry": {"type": "Point", "coordinates": [59.896572850769154, 55.390430389130145]}}, {"type": "Feature", "properties": {"norad_id": 45854, "name": "GPS BIII-3  (PRN 23)", "group": "gps-ops", "lat": 24.354683262748893, "lon": 53.75739318721591, "alt_km": 20338.98976396475, "timestamp": "2025-12-08T19:31:49.069331+00:00", "meta": {"OBJECT_NAME": "GPS BIII-3  (PRN 23)", "OBJECT_ID": "2020-041A", "EPOCH": "2025-12-07T06:57:27.444672", "MEAN_MOTION": 2.00561718, "ECCENTRICITY": 0.00603563, "INCLINATION": 56.5433, "RA_OF_ASC_NODE": 36.3977, "ARG_OF_PERICENTER": 203.2104, "MEAN_ANOMALY": 166.2515, "EPHEMERIS_TYPE": 0, "CLASSIFICATION_TYPE": "U", "NORAD_CAT_ID": 45854, "ELEMENT_SET_NO": 999, "REV_AT_EPOCH": 4019, "BSTAR": 0, "MEAN_MOTION_DOT": -7.4e-07, "MEAN_MOTION_DDOT": 0}, "tle": {"line1": "1 45854U 20041A   25341.28990098 -.00000074  00000+0  00000+0 0  9993", "line2": "2 45854  56.5433  36.3977 0060356 203.2104 166.2515  2.00561718 40191"}}, "geometry": {"type": "Point", "coordinates": [53.75739318721591, 24.354683262748893]}}, {"type": "Feature", "properties": {"norad_id": 46826, "name": "GPS BIII-4  (PRN 14)", "group": "gps-ops", "lat": 0.6800651923643243, "lon": -140.9962890430303, "alt_km": 20338.504278428234, "timestamp": "2025-12-08T19:31:49.069343+00:00", "meta": {"OBJECT_NAME": "GPS BIII-4  (PRN 14)", "OBJECT_ID": "2020-078A", "EPOCH": "2025-11-12T03:01:29.191584", "MEAN_MOTION": 2.00567032, "ECCENTRICITY": 0.00639112, "INCLINATION": 54.0223, "RA_OF_ASC_NODE": 219.5836, "ARG_OF_PERICENTER": 203.4986, "MEAN_ANOMALY": 326.7753, "EPHEMERIS_TYPE": 0, "CLASSIFICATION_TYPE": "U", "NORAD_CAT_ID": 46826, "ELEMENT_SET_NO": 999, "REV_AT_EPOCH": 3715, "BSTAR": 0, "MEAN_MOTION_DOT": -3.4e-07, "MEAN_MOTION_DDOT": 0}, "tle": {"line1": "1 46826U 20078A   25316.12603231 -.00000034  00000+0  00000+0 0  9994", "line2": "2 46826  54.0223 219.5836 0063911 203.4986 326.7753  2.00567032 37154"}}, "geometry": {"type": "Point", "coordinates": [-140.9962890430303, 0.6800651923643243]}}, {"type": "Feature", "properties": {"norad_id": 48859, "name": "GPS BIII-5  (PRN 11)", "group": "gps-ops", "lat": -4.9393729860764255, "lon": 163.5451305797547, "alt_km": 20139.450516892346, "timestamp": "2025-12-08T19:31:49.069355+00:00", "meta": {"OBJECT_NAME": "GPS BIII-5  (PRN 11)", "OBJECT_ID": "2021-054A", "EPOCH": "2025-11-30T17:12:22.002912", "MEAN_MOTION": 2.00553932, "ECCENTRICITY": 0.0024653, "INCLINATION": 55.2606, "RA_OF_ASC_NODE": 340.4377, "ARG_OF_PERICENTER": 232.9477, "MEAN_ANOMALY": 227.2059, "EPHEMERIS_TYPE": 0, "CLASSIFICATION_TYPE": "U", "NORAD_CAT_ID": 48859, "ELEMENT_SET_NO": 999, "REV_AT_EPOCH": 3277, "BSTAR": 0, "MEAN_MOTION_DOT": -5.5e-07, "MEAN_MOTION_DDOT": 0}, "tle": {"line1": "1 48859U 21054A   25334.71692133 -.00000055  00000+0  00000+0 0  9994", "line2": "2 48859  55.2606 340.4377 0024653 232.9477 227.2059  2.00553932 32777"}}, "geometry": {"type": "Point", "coordinates": [163.5451305797547, -4.9393729860764255]}}, {"type": "Feature", "properties": {"norad_id": 55268, "name": "GPS BIII-6  (PRN 28)", "group": "gps-ops", "lat": -37.9164457673109, "lon": 8.9376478090405, "alt_km": 20193.395304707625, "timestamp": "2025-12-08T19:31:49.069366+00:00", "meta": {"OBJECT_NAME": "GPS BIII-6  (PRN 28)", "OBJECT_ID": "2023-009A", "EPOCH": "2025-12-08T05:52:26.989248", "MEAN_MOTION": 2.00555991, "ECCENTRICITY": 0.0003615, "INCLINATION": 55.1046, "RA_OF_ASC_NODE": 156.0217, "ARG_OF_PERICENTER": 356.7859, "MEAN_ANOMALY": 180.9144, "EPHEMERIS_TYPE": 0, "CLASSIFICATION_TYPE": "U", "NORAD_CAT_ID": 55268, "ELEMENT_SET_NO": 999, "REV_AT_EPOCH": 2141, "BSTAR": 0, "MEAN_MOTION_DOT": 5.9e-07, "MEAN_MOTION_DDOT": 0}, "tle": {"line1": "1 55268U 23009A   25342.24475682  .00000059  00000+0  00000+0 0  9996", "line2": "2 55268  55.1046 156.0217 0003615 356.7859 180.9144  2.00555991 21410"}}, "geometry": {"type": "Point", "coordinates": [8.9376478090405, -37.9164457673109]}}]}